[{"OBJECT_NAME":"X-SAT","OBJECT_ID":"2011-015C","EPOCH":"2026-03-09T22:53:38.580000","MEAN_MOTION":14.25171741,"ECCENTRICITY":0.0012844,"INCLINATION":98.3436,"RA_OF_ASC_NODE":50.7528,"ARG_OF_PERICENTER":275.8425,"MEAN_ANOMALY":84.1292,"EPHEMERIS_TYPE":0,"CLASSIFICATION_TYPE":"U","NORAD_CAT_ID":37389,"ELEMENT_SET_NO":999,"REV_AT_EPOCH":77354,"BSTAR":-4.3267073e-5,"MEAN_MOTION_DOT":-1.43e-6,"MEAN_MOTION_DDOT":0},{"OBJECT_NAME":"FENGYUN 1C DEB","OBJECT_ID":"1999-025CWG","EPOCH":"2026-03-07T01:12:37.032768","MEAN_MOTION":13.94489099,"ECCENTRICITY":0.01365377,"INCLINATION":98.5279,"RA_OF_ASC_NODE":274.5227,"ARG_OF_PERICENTER":101.8077,"MEAN_ANOMALY":259.8437,"EPHEMERIS_TYPE":0,"CLASSIFICATION_TYPE":"U","NORAD_CAT_ID":32234,"ELEMENT_SET_NO":999,"REV_AT_EPOCH":94384,"BSTAR":0.0011548583,"MEAN_MOTION_DOT":1.626e-5,"MEAN_MOTION_DDOT":0}]
